{"fetched_at":"2026-07-23T07:05:53.124Z","source":"https://celestrak.org/NORAD/elements/gp.php?NAME=NUSAT&FORMAT=JSON","constellation":"satellogic","records":[{"OBJECT_NAME":"NUSAT-26 (M SOMERVILLE)","OBJECT_ID":"2022-033AD","EPOCH":"2026-07-22T21:54:55.529280","CLASSIFICATION_TYPE":"U","MEAN_MOTION":15.43455823,"ECCENTRICITY":0.00073173,"INCLINATION":97.2333,"RA_OF_ASC_NODE":282.7441,"ARG_OF_PERICENTER":114.9428,"MEAN_ANOMALY":245.2581,"EPHEMERIS_TYPE":0,"NORAD_CAT_ID":52184,"ELEMENT_SET_NO":999,"REV_AT_EPOCH":11021,"BSTAR":0.00027760217,"MEAN_MOTION_DOT":0.00012353,"MEAN_MOTION_DDOT":0},{"OBJECT_NAME":"NUSAT-33 (ALBANIA-2)","OBJECT_ID":"2023-001AQ","EPOCH":"2026-07-22T21:33:30.714624","CLASSIFICATION_TYPE":"U","MEAN_MOTION":15.283626,"ECCENTRICITY":0.00045768,"INCLINATION":97.3052,"RA_OF_ASC_NODE":264.1208,"ARG_OF_PERICENTER":277.5321,"MEAN_ANOMALY":82.5399,"EPHEMERIS_TYPE":0,"NORAD_CAT_ID":55047,"ELEMENT_SET_NO":999,"REV_AT_EPOCH":19776,"BSTAR":0.00038900231,"MEAN_MOTION_DOT":0.00010678,"MEAN_MOTION_DDOT":0},{"OBJECT_NAME":"NUSAT-35 (WILLIAMINA)","OBJECT_ID":"2023-001AR","EPOCH":"2026-07-22T22:33:15.666624","CLASSIFICATION_TYPE":"U","MEAN_MOTION":15.35971121,"ECCENTRICITY":0.00095559,"INCLINATION":97.1834,"RA_OF_ASC_NODE":255.8016,"ARG_OF_PERICENTER":341.1082,"MEAN_ANOMALY":18.9807,"EPHEMERIS_TYPE":0,"NORAD_CAT_ID":55048,"ELEMENT_SET_NO":999,"REV_AT_EPOCH":19789,"BSTAR":0.00044554403,"MEAN_MOTION_DOT":0.0001556,"MEAN_MOTION_DDOT":0},{"OBJECT_NAME":"NUSAT-39 (TIKVAH ALPER)","OBJECT_ID":"2023-054Z","EPOCH":"2026-07-22T23:55:39.957600","CLASSIFICATION_TYPE":"U","MEAN_MOTION":15.4833445,"ECCENTRICITY":0.0001583,"INCLINATION":97.3076,"RA_OF_ASC_NODE":114.119,"ARG_OF_PERICENTER":252.6773,"MEAN_ANOMALY":107.4305,"EPHEMERIS_TYPE":0,"NORAD_CAT_ID":56201,"ELEMENT_SET_NO":999,"REV_AT_EPOCH":18399,"BSTAR":0.00059838208,"MEAN_MOTION_DOT":0.00031627,"MEAN_MOTION_DDOT":0},{"OBJECT_NAME":"NUSAT-38 (MARIA AGNESI)","OBJECT_ID":"2023-054AA","EPOCH":"2026-07-22T21:52:07.113216","CLASSIFICATION_TYPE":"U","MEAN_MOTION":15.51569331,"ECCENTRICITY":0.0007898,"INCLINATION":97.3018,"RA_OF_ASC_NODE":114.7989,"ARG_OF_PERICENTER":291.1684,"MEAN_ANOMALY":68.8724,"EPHEMERIS_TYPE":0,"NORAD_CAT_ID":56202,"ELEMENT_SET_NO":999,"REV_AT_EPOCH":18404,"BSTAR":0.00064787455,"MEAN_MOTION_DOT":0.0003846,"MEAN_MOTION_DDOT":0},{"OBJECT_NAME":"NUSAT-37 (JOAN CLARKE)","OBJECT_ID":"2023-054AB","EPOCH":"2026-07-22T23:47:39.271200","CLASSIFICATION_TYPE":"U","MEAN_MOTION":15.60197139,"ECCENTRICITY":0.00086058,"INCLINATION":97.2587,"RA_OF_ASC_NODE":111.8142,"ARG_OF_PERICENTER":124.2294,"MEAN_ANOMALY":235.978,"EPHEMERIS_TYPE":0,"NORAD_CAT_ID":56203,"ELEMENT_SET_NO":999,"REV_AT_EPOCH":18422,"BSTAR":0.00071013917,"MEAN_MOTION_DOT":0.00058091,"MEAN_MOTION_DDOT":0},{"OBJECT_NAME":"NUSAT-40 (C SHOEMAKER)","OBJECT_ID":"2023-084M","EPOCH":"2026-07-22T22:25:38.750592","CLASSIFICATION_TYPE":"U","MEAN_MOTION":15.84301233,"ECCENTRICITY":0.00031173,"INCLINATION":97.4857,"RA_OF_ASC_NODE":353.504,"ARG_OF_PERICENTER":174.4774,"MEAN_ANOMALY":185.653,"EPHEMERIS_TYPE":0,"NORAD_CAT_ID":56943,"ELEMENT_SET_NO":999,"REV_AT_EPOCH":17445,"BSTAR":0.00079421566,"MEAN_MOTION_DOT":0.00182526,"MEAN_MOTION_DDOT":0},{"OBJECT_NAME":"NUSAT-41 (C PAYNE-G)","OBJECT_ID":"2023-084N","EPOCH":"2026-07-22T21:35:26.450016","CLASSIFICATION_TYPE":"U","MEAN_MOTION":15.30038187,"ECCENTRICITY":0.00076339,"INCLINATION":97.5553,"RA_OF_ASC_NODE":341.1967,"ARG_OF_PERICENTER":181.1512,"MEAN_ANOMALY":178.9712,"EPHEMERIS_TYPE":0,"NORAD_CAT_ID":56944,"ELEMENT_SET_NO":999,"REV_AT_EPOCH":17324,"BSTAR":0.00042905276,"MEAN_MOTION_DOT":0.00012413,"MEAN_MOTION_DDOT":0},{"OBJECT_NAME":"NUSAT-42 (M WONENBURGER)","OBJECT_ID":"2023-084AL","EPOCH":"2026-07-22T22:56:55.574592","CLASSIFICATION_TYPE":"U","MEAN_MOTION":15.46762004,"ECCENTRICITY":0.00069282,"INCLINATION":97.5754,"RA_OF_ASC_NODE":349.6245,"ARG_OF_PERICENTER":122.6319,"MEAN_ANOMALY":237.56,"EPHEMERIS_TYPE":0,"NORAD_CAT_ID":56966,"ELEMENT_SET_NO":999,"REV_AT_EPOCH":17360,"BSTAR":0.000512209,"MEAN_MOTION_DOT":0.00025623,"MEAN_MOTION_DDOT":0},{"OBJECT_NAME":"NUSAT-44 (MARIA MITCHELL)","OBJECT_ID":"2024-043AA","EPOCH":"2026-07-22T22:07:00.005376","CLASSIFICATION_TYPE":"U","MEAN_MOTION":15.29964664,"ECCENTRICITY":0.00066955,"INCLINATION":97.5487,"RA_OF_ASC_NODE":344.7337,"ARG_OF_PERICENTER":109.6753,"MEAN_ANOMALY":250.521,"EPHEMERIS_TYPE":0,"NORAD_CAT_ID":59122,"ELEMENT_SET_NO":999,"REV_AT_EPOCH":13273,"BSTAR":0.00042020392,"MEAN_MOTION_DOT":0.00012126,"MEAN_MOTION_DDOT":0},{"OBJECT_NAME":"NUSAT-50 (NANCY ROMAN)","OBJECT_ID":"2024-149AB","EPOCH":"2026-07-22T05:17:15.333504","CLASSIFICATION_TYPE":"U","MEAN_MOTION":15.3040355,"ECCENTRICITY":0.00047978,"INCLINATION":97.3772,"RA_OF_ASC_NODE":284.2435,"ARG_OF_PERICENTER":85.4775,"MEAN_ANOMALY":274.7013,"EPHEMERIS_TYPE":0,"NORAD_CAT_ID":60493,"ELEMENT_SET_NO":999,"REV_AT_EPOCH":10748,"BSTAR":0.00031882513,"MEAN_MOTION_DOT":0.00009303,"MEAN_MOTION_DDOT":0},{"OBJECT_NAME":"NUSAT-48 (HENRIETTA LEAVITT)","OBJECT_ID":"2024-149AG","EPOCH":"2026-07-22T16:01:25.704768","CLASSIFICATION_TYPE":"U","MEAN_MOTION":15.29976514,"ECCENTRICITY":0.00049049,"INCLINATION":97.3904,"RA_OF_ASC_NODE":284.9909,"ARG_OF_PERICENTER":132.1158,"MEAN_ANOMALY":228.05,"EPHEMERIS_TYPE":0,"NORAD_CAT_ID":60498,"ELEMENT_SET_NO":999,"REV_AT_EPOCH":10756,"BSTAR":0.00026011572,"MEAN_MOTION_DOT":0.00007475,"MEAN_MOTION_DDOT":0},{"OBJECT_NAME":"NUSAT-49 (KLARA DAN VON NEUMANN)","OBJECT_ID":"2024-149AJ","EPOCH":"2026-07-21T11:15:03.157920","CLASSIFICATION_TYPE":"U","MEAN_MOTION":15.2984765,"ECCENTRICITY":0.00032494,"INCLINATION":97.3772,"RA_OF_ASC_NODE":283.5228,"ARG_OF_PERICENTER":145.3637,"MEAN_ANOMALY":214.7816,"EPHEMERIS_TYPE":0,"NORAD_CAT_ID":60500,"ELEMENT_SET_NO":999,"REV_AT_EPOCH":10737,"BSTAR":0.000079184532,"MEAN_MOTION_DOT":0.00002213,"MEAN_MOTION_DDOT":0},{"OBJECT_NAME":"NUSAT-45 (UZMASAT-1)","OBJECT_ID":"2025-009AH","EPOCH":"2026-07-22T16:48:00.136512","CLASSIFICATION_TYPE":"U","MEAN_MOTION":15.29899851,"ECCENTRICITY":0.00023912,"INCLINATION":97.3583,"RA_OF_ASC_NODE":284.5761,"ARG_OF_PERICENTER":158.139,"MEAN_ANOMALY":201.9953,"EPHEMERIS_TYPE":0,"NORAD_CAT_ID":62640,"ELEMENT_SET_NO":999,"REV_AT_EPOCH":8435,"BSTAR":0.00031758069,"MEAN_MOTION_DOT":0.00009121,"MEAN_MOTION_DDOT":0},{"OBJECT_NAME":"NUSAT-52","OBJECT_ID":"2025-276AC","EPOCH":"2026-07-22T10:26:38.916960","CLASSIFICATION_TYPE":"U","MEAN_MOTION":15.20085618,"ECCENTRICITY":0.00018648,"INCLINATION":97.4189,"RA_OF_ASC_NODE":276.4023,"ARG_OF_PERICENTER":232.0139,"MEAN_ANOMALY":128.0928,"EPHEMERIS_TYPE":0,"NORAD_CAT_ID":66692,"ELEMENT_SET_NO":999,"REV_AT_EPOCH":3577,"BSTAR":0.0002199583,"MEAN_MOTION_DOT":0.00004681,"MEAN_MOTION_DDOT":0},{"OBJECT_NAME":"NUSAT-51 (YVONNE BRILL)","OBJECT_ID":"2025-276CC","EPOCH":"2026-07-22T15:08:58.035264","CLASSIFICATION_TYPE":"U","MEAN_MOTION":15.2062518,"ECCENTRICITY":0.00023611,"INCLINATION":97.4195,"RA_OF_ASC_NODE":276.7445,"ARG_OF_PERICENTER":199.3072,"MEAN_ANOMALY":160.8074,"EPHEMERIS_TYPE":0,"NORAD_CAT_ID":66740,"ELEMENT_SET_NO":999,"REV_AT_EPOCH":3581,"BSTAR":0.000276335,"MEAN_MOTION_DOT":0.00005993,"MEAN_MOTION_DDOT":0}]}
