{"epoch":1784799577,"count":18318,"objects":[{"id":"52184","name":"NUSAT-26 (M SOMERVILLE)","type":"PAYLOAD","l1":"1 52184U 22033AD  26203.91314270  .00012353  00000-0  27760-3 0  9999","l2":"2 52184  97.2333 282.7441 0007317 114.9428 245.2581 15.43455823110216"},{"id":"55047","name":"NUSAT-33 (ALBANIA-2)","type":"PAYLOAD","l1":"1 55047U 23001AQ  26203.89827216  .00010678  00000-0  38900-3 0  9998","l2":"2 55047  97.3052 264.1208 0004577 277.5321  82.5399 15.28362600197761"},{"id":"55048","name":"NUSAT-35 (WILLIAMINA)","type":"PAYLOAD","l1":"1 55048U 23001AR  26203.93976466  .00015560  00000-0  44554-3 0  9993","l2":"2 55048  97.1834 255.8016 0009556 341.1082  18.9807 15.35971121197899"},{"id":"56201","name":"NUSAT-39 (TIKVAH ALPER)","type":"PAYLOAD","l1":"1 56201U 23054Z   26203.99699025  .00031627  00000-0  59838-3 0  9995","l2":"2 56201  97.3076 114.1190 0001583 252.6773 107.4305 15.48334450183991"},{"id":"56202","name":"NUSAT-38 (MARIA AGNESI)","type":"PAYLOAD","l1":"1 56202U 23054AA  26203.91119344  .00038460  00000-0  64787-3 0  9990","l2":"2 56202  97.3018 114.7989 0007898 291.1684  68.8724 15.51569331184048"},{"id":"56203","name":"NUSAT-37 (JOAN CLARKE)","type":"PAYLOAD","l1":"1 56203U 23054AB  26203.99142675  .00058091  00000-0  71014-3 0  9995","l2":"2 56203  97.2587 111.8142 0008606 124.2294 235.9780 15.60197139184221"},{"id":"56943","name":"NUSAT-40 (C SHOEMAKER)","type":"PAYLOAD","l1":"1 56943U 23084M   26203.93447628  .00182526  00000-0  79422-3 0  9991","l2":"2 56943  97.4857 353.5040 0003117 174.4774 185.6530 15.84301233174454"},{"id":"56944","name":"NUSAT-41 (C PAYNE-G)","type":"PAYLOAD","l1":"1 56944U 23084N   26203.89961169  .00012413  00000-0  42905-3 0  9991","l2":"2 56944  97.5553 341.1967 0007634 181.1512 178.9712 15.30038187173242"},{"id":"56966","name":"NUSAT-42 (M WONENBURGER)","type":"PAYLOAD","l1":"1 56966U 23084AL  26203.95619878  .00025623  00000-0  51221-3 0  9997","l2":"2 56966  97.5754 349.6245 0006928 122.6319 237.5600 15.46762004173608"},{"id":"59122","name":"NUSAT-44 MARIA MITCHELL","type":"PAYLOAD","l1":"1 59122U 24043AA  26203.92152784  .00012126  00000-0  42020-3 0  9996","l2":"2 59122  97.5487 344.7337 0006696 109.6753 250.5210 15.29964664132733"},{"id":"60493","name":"NUSAT-50 (NANCY ROMAN)","type":"PAYLOAD","l1":"1 60493U 24149AB  26203.22031636  .00009303  00000-0  31883-3 0  9999","l2":"2 60493  97.3772 284.2435 0004798  85.4775 274.7013 15.30403550107481"},{"id":"60498","name":"NUSAT-48 (H. LEAVITT)","type":"PAYLOAD","l1":"1 60498U 24149AG  26203.66765862  .00007475  00000-0  26012-3 0  9993","l2":"2 60498  97.3904 284.9909 0004905 132.1158 228.0500 15.29976514107566"},{"id":"60500","name":"NUSAT-49(K.VON NEUMANN)","type":"PAYLOAD","l1":"1 60500U 24149AJ  26202.46878655  .00002213  00000-0  79185-4 0  9994","l2":"2 60500  97.3772 283.5228 0003249 145.3637 214.7816 15.29847650107379"},{"id":"62640","name":"NUSAT-45 (UZMASAT-1)","type":"PAYLOAD","l1":"1 62640U 25009AH  26203.70000158  .00009121  00000-0  31758-3 0  9998","l2":"2 62640  97.3583 284.5761 0002391 158.1390 201.9953 15.29899851 84356"},{"id":"66692","name":"NUSAT-52","type":"PAYLOAD","l1":"1 66692U 25276AC  26203.43517265  .00004681  00000-0  21996-3 0  9996","l2":"2 66692  97.4189 276.4023 0001865 232.0139 128.0928 15.20085618 35771"},{"id":"66740","name":"NUSAT-51 (YVONNE BRILL)","type":"PAYLOAD","l1":"1 66740U 25276CC  26203.63122726  .00005993  00000-0  27634-3 0  9998","l2":"2 66740  97.4195 276.7445 0002361 199.3072 160.8074 15.20625180 35811"}]}